start=new Date('2022-06-28T00:00:00.000Z').valueOf();
sats=[{"ARG_OF_PERICENTER":"42.6368","OBJECT_TYPE":"PAYLOAD","FILE":"3504144","LAUNCH_DATE":"2020-01-07","OBJECT_ID":"2020-001T","SEMIMAJOR_AXIS":"6912.889","ELEMENT_SET_NO":"999","RA_OF_ASC_NODE":"285.8514","TLE_LINE1":"1 44931U 20001T   22178.66150761 -.00000691  00000-0 -23891-4 0  9991","DECAY_DATE":null,"REF_FRAME":"TEME","NORAD_CAT_ID":"44931","GP_ID":"206988848","INCLINATION":"53.0548","MEAN_ANOMALY":"317.4774","PERIOD":"95.334","MEAN_MOTION_DDOT":"0.0000000000000","ECCENTRICITY":"0.00019430","CLASSIFICATION_TYPE":"U","EPHEMERIS_TYPE":"0","SITE":"AFETR","MEAN_MOTION":"15.10474614","COUNTRY_CODE":"US","TLE_LINE2":"2 44931  53.0548 285.8514 0001943  42.6368 317.4774 15.10474614137048","REV_AT_EPOCH":"13704","EPOCH":"2022-06-27T15:52:34.257504","CENTER_NAME":"EARTH","TIME_SYSTEM":"UTC","PERIAPSIS":"533.410","MEAN_MOTION_DOT":"-0.00000691","RCS_SIZE":"LARGE","MEAN_ELEMENT_THEORY":"SGP4","OBJECT_NAME":"STARLINK-1128","BSTAR":"-0.00002389100000","APOAPSIS":"536.097"},{"GP_ID":"206989098","INCLINATION":"53.0557","MEAN_ANOMALY":"290.6621","PERIOD":"95.592","ECCENTRICITY":"0.00015730","CLASSIFICATION_TYPE":"U","MEAN_MOTION_DDOT":"0.0000000000000","COUNTRY_CODE":"US","MEAN_MOTION":"15.06394675","SITE":"AFETR","EPHEMERIS_TYPE":"0","REV_AT_EPOCH":"13744","TLE_LINE2":"2 44932  53.0557 291.7912 0001573  69.4537 290.6621 15.06394675137441","TIME_SYSTEM":"UTC","CENTER_NAME":"EARTH","EPOCH":"2022-06-27T14:58:25.598496","MEAN_ELEMENT_THEORY":"SGP4","RCS_SIZE":"LARGE","MEAN_MOTION_DOT":"-0.00000308","PERIAPSIS":"546.141","APOAPSIS":"548.319","BSTAR":"-0.00000179560000","OBJECT_NAME":"STARLINK-1130","OBJECT_TYPE":"PAYLOAD","ARG_OF_PERICENTER":"69.4537","FILE":"3504144","OBJECT_ID":"2020-001U","LAUNCH_DATE":"2020-01-07","TLE_LINE1":"1 44932U 20001U   22178.62390739 -.00000308  00000-0 -17956-5 0  9990","RA_OF_ASC_NODE":"291.7912","SEMIMAJOR_AXIS":"6925.365","ELEMENT_SET_NO":"999","NORAD_CAT_ID":"44932","REF_FRAME":"TEME","DECAY_DATE":null},{"REV_AT_EPOCH":"13750","TLE_LINE2":"2 44933  53.0559 291.6843 0001488  78.0931 282.0225 15.06396361137501","EPOCH":"2022-06-27T15:35:34.326240","TIME_SYSTEM":"UTC","CENTER_NAME":"EARTH","MEAN_MOTION_DOT":"-0.00000366","PERIAPSIS":"546.194","MEAN_ELEMENT_THEORY":"SGP4","RCS_SIZE":"LARGE","OBJECT_NAME":"STARLINK-1144","APOAPSIS":"548.255","BSTAR":"-0.00000568050000","GP_ID":"206989850","INCLINATION":"53.0559","PERIOD":"95.592","MEAN_ANOMALY":"282.0225","MEAN_MOTION_DDOT":"0.0000000000000","ECCENTRICITY":"0.00014880","CLASSIFICATION_TYPE":"U","SITE":"AFETR","EPHEMERIS_TYPE":"0","COUNTRY_CODE":"US","MEAN_MOTION":"15.06396361","LAUNCH_DATE":"2020-01-07","OBJECT_ID":"2020-001V","ELEMENT_SET_NO":"999","SEMIMAJOR_AXIS":"6925.360","RA_OF_ASC_NODE":"291.6843","TLE_LINE1":"1 44933U 20001V   22178.64970285 -.00000366  00000-0 -56805-5 0  9993","REF_FRAME":"TEME","DECAY_DATE":null,"NORAD_CAT_ID":"44933","OBJECT_TYPE":"PAYLOAD","ARG_OF_PERICENTER":"78.0931","FILE":"3504144"},{"INCLINATION":"53.0567","GP_ID":"206990096","PERIOD":"95.592","MEAN_ANOMALY":"271.8772","CLASSIFICATION_TYPE":"U","ECCENTRICITY":"0.00012810","MEAN_MOTION_DDOT":"0.0000000000000","COUNTRY_CODE":"US","MEAN_MOTION":"15.06396735","SITE":"AFETR","EPHEMERIS_TYPE":"0","REV_AT_EPOCH":"13649","TLE_LINE2":"2 44934  53.0567 271.6246 0001281  88.2364 271.8772 15.06396735136495","CENTER_NAME":"EARTH","TIME_SYSTEM":"UTC","EPOCH":"2022-06-27T15:54:09.017568","MEAN_ELEMENT_THEORY":"SGP4","RCS_SIZE":"LARGE","MEAN_MOTION_DOT":"-0.00000053","PERIAPSIS":"546.336","APOAPSIS":"548.111","BSTAR":"0.00001535200000","OBJECT_NAME":"STARLINK-1071","OBJECT_TYPE":"PAYLOAD","ARG_OF_PERICENTER":"88.2364","FILE":"3504144","OBJECT_ID":"2020-001W","LAUNCH_DATE":"2020-01-07","TLE_LINE1":"1 44934U 20001W   22178.66260437 -.00000053  00000-0  15352-4 0  9990","RA_OF_ASC_NODE":"271.6246","SEMIMAJOR_AXIS":"6925.359","ELEMENT_SET_NO":"999","NORAD_CAT_ID":"44934","DECAY_DATE":null,"REF_FRAME":"TEME"},{"LAUNCH_DATE":"2020-01-07","OBJECT_ID":"2020-001Z","SEMIMAJOR_AXIS":"6925.368","ELEMENT_SET_NO":"999","RA_OF_ASC_NODE":"271.7192","TLE_LINE1":"1 44937U 20001Z   22178.64048957 -.00001674  00000-0 -93522-4 0  9998","REF_FRAME":"TEME","DECAY_DATE":null,"NORAD_CAT_ID":"44937","ARG_OF_PERICENTER":"92.8248","OBJECT_TYPE":"PAYLOAD","FILE":"3504144","TLE_LINE2":"2 44937  53.0551 271.7192 0001645  92.8248 267.2929 15.06393495136491","REV_AT_EPOCH":"13649","EPOCH":"2022-06-27T15:22:18.298848","TIME_SYSTEM":"UTC","CENTER_NAME":"EARTH","PERIAPSIS":"546.094","MEAN_MOTION_DOT":"-0.00001674","RCS_SIZE":"LARGE","MEAN_ELEMENT_THEORY":"SGP4","OBJECT_NAME":"STARLINK-1079","BSTAR":"-0.00009352200000","APOAPSIS":"548.373","INCLINATION":"53.0551","GP_ID":"206988349","MEAN_ANOMALY":"267.2929","PERIOD":"95.593","MEAN_MOTION_DDOT":"0.0000000000000","ECCENTRICITY":"0.00016450","CLASSIFICATION_TYPE":"U","EPHEMERIS_TYPE":"0","SITE":"AFETR","MEAN_MOTION":"15.06393495","COUNTRY_CODE":"US"},{"OBJECT_ID":"2020-001AA","LAUNCH_DATE":"2020-01-07","NORAD_CAT_ID":"44938","DECAY_DATE":null,"REF_FRAME":"TEME","RA_OF_ASC_NODE":"271.5696","TLE_LINE1":"1 44938U 20001AA  22178.67366073 -.00000503  00000-0 -14891-4 0  9996","SEMIMAJOR_AXIS":"6925.378","ELEMENT_SET_NO":"999","ARG_OF_PERICENTER":"50.4925","OBJECT_TYPE":"PAYLOAD","FILE":"3504144","TIME_SYSTEM":"UTC","CENTER_NAME":"EARTH","EPOCH":"2022-06-27T16:10:04.287072","TLE_LINE2":"2 44938  53.0541 271.5696 0001259  50.4925 309.6175 15.06390257136498","REV_AT_EPOCH":"13649","BSTAR":"-0.00001489100000","APOAPSIS":"548.115","OBJECT_NAME":"STARLINK-1082","RCS_SIZE":"LARGE","MEAN_ELEMENT_THEORY":"SGP4","PERIAPSIS":"546.372","MEAN_MOTION_DOT":"-0.00000503","PERIOD":"95.593","MEAN_ANOMALY":"309.6175","GP_ID":"206988599","INCLINATION":"53.0541","MEAN_MOTION":"15.06390257","COUNTRY_CODE":"US","EPHEMERIS_TYPE":"0","SITE":"AFETR","CLASSIFICATION_TYPE":"U","ECCENTRICITY":"0.00012590","MEAN_MOTION_DDOT":"0.0000000000000"},{"MEAN_ANOMALY":"283.4007","PERIOD":"95.592","INCLINATION":"53.0553","GP_ID":"206959801","SITE":"AFETR","EPHEMERIS_TYPE":"0","COUNTRY_CODE":"US","MEAN_MOTION":"15.06396693","MEAN_MOTION_DDOT":"0.0000000000000","ECCENTRICITY":"0.00015680","CLASSIFICATION_TYPE":"U","EPOCH":"2022-06-27T13:09:37.111680","TIME_SYSTEM":"UTC","CENTER_NAME":"EARTH","REV_AT_EPOCH":"13647","TLE_LINE2":"2 44939  53.0553 272.1279 0001568  76.7157 283.4007 15.06396693136478","OBJECT_NAME":"STARLINK-1083","APOAPSIS":"548.310","BSTAR":"-0.00000797460000","MEAN_MOTION_DOT":"-0.00000400","PERIAPSIS":"546.138","MEAN_ELEMENT_THEORY":"SGP4","RCS_SIZE":"LARGE","OBJECT_TYPE":"PAYLOAD","ARG_OF_PERICENTER":"76.7157","FILE":"3503902","LAUNCH_DATE":"2020-01-07","OBJECT_ID":"2020-001AB","REF_FRAME":"TEME","DECAY_DATE":null,"NORAD_CAT_ID":"44939","SEMIMAJOR_AXIS":"6925.359","ELEMENT_SET_NO":"999","RA_OF_ASC_NODE":"272.1279","TLE_LINE1":"1 44939U 20001AB  22178.54834620 -.00000400  00000-0 -79746-5 0  9998"},{"FILE":"3503902","ARG_OF_PERICENTER":"59.4807","OBJECT_TYPE":"PAYLOAD","RA_OF_ASC_NODE":"272.0826","TLE_LINE1":"1 44940U 20001AC  22178.55939756 -.00000598  00000-0 -21264-4 0  9996","SEMIMAJOR_AXIS":"6925.373","ELEMENT_SET_NO":"999","NORAD_CAT_ID":"44940","DECAY_DATE":null,"REF_FRAME":"TEME","OBJECT_ID":"2020-001AC","LAUNCH_DATE":"2020-01-07","CLASSIFICATION_TYPE":"U","ECCENTRICITY":"0.00017690","MEAN_MOTION_DDOT":"0.0000000000000","MEAN_MOTION":"15.06392185","COUNTRY_CODE":"US","EPHEMERIS_TYPE":"0","SITE":"AFETR","GP_ID":"206958552","INCLINATION":"53.0554","MEAN_ANOMALY":"300.6357","PERIOD":"95.593","RCS_SIZE":"LARGE","MEAN_ELEMENT_THEORY":"SGP4","PERIAPSIS":"546.012","MEAN_MOTION_DOT":"-0.00000598","BSTAR":"-0.00002126400000","APOAPSIS":"548.463","OBJECT_NAME":"STARLINK-1091","TLE_LINE2":"2 44940  53.0554 272.0826 0001769  59.4807 300.6357 15.06392185136473","REV_AT_EPOCH":"13647","CENTER_NAME":"EARTH","TIME_SYSTEM":"UTC","EPOCH":"2022-06-27T13:25:31.949184"},{"ARG_OF_PERICENTER":"58.2301","OBJECT_TYPE":"PAYLOAD","FILE":"3504144","LAUNCH_DATE":"2020-01-07","OBJECT_ID":"2020-001AD","SEMIMAJOR_AXIS":"6925.356","ELEMENT_SET_NO":"999","TLE_LINE1":"1 44941U 20001AD  22178.64785881  .00000785  00000-0  71623-4 0  9995","RA_OF_ASC_NODE":"271.6886","DECAY_DATE":null,"REF_FRAME":"TEME","NORAD_CAT_ID":"44941","GP_ID":"206988849","INCLINATION":"53.0554","MEAN_ANOMALY":"301.8823","PERIOD":"95.592","MEAN_MOTION_DDOT":"0.0000000000000","CLASSIFICATION_TYPE":"U","ECCENTRICITY":"0.00013870","EPHEMERIS_TYPE":"0","SITE":"AFETR","MEAN_MOTION":"15.06397638","COUNTRY_CODE":"US","TLE_LINE2":"2 44941  53.0554 271.6886 0001387  58.2301 301.8823 15.06397638136498","REV_AT_EPOCH":"13649","EPOCH":"2022-06-27T15:32:55.001184","CENTER_NAME":"EARTH","TIME_SYSTEM":"UTC","PERIAPSIS":"546.260","MEAN_MOTION_DOT":"0.00000785","RCS_SIZE":"LARGE","MEAN_ELEMENT_THEORY":"SGP4","OBJECT_NAME":"STARLINK-1094","BSTAR":"0.00007162300000","APOAPSIS":"548.181"},{"REV_AT_EPOCH":"13649","TLE_LINE2":"2 44942  53.0544 271.6020 0000950 130.2217 229.8855 15.07844400136499","EPOCH":"2022-06-27T14:37:54.090048","TIME_SYSTEM":"UTC","CENTER_NAME":"EARTH","MEAN_MOTION_DOT":"0.00011115","PERIAPSIS":"542.133","MEAN_ELEMENT_THEORY":"SGP4","RCS_SIZE":"LARGE","OBJECT_NAME":"STARLINK-1096","APOAPSIS":"543.448","BSTAR":"0.00073483000000","GP_ID":"206989099","INCLINATION":"53.0544","MEAN_ANOMALY":"229.8855","PERIOD":"95.501","MEAN_MOTION_DDOT":"0.0000000000000","CLASSIFICATION_TYPE":"U","ECCENTRICITY":"0.00009500","SITE":"AFETR","EPHEMERIS_TYPE":"0","COUNTRY_CODE":"US","MEAN_MOTION":"15.07844400","LAUNCH_DATE":"2020-01-07","OBJECT_ID":"2020-001AE","SEMIMAJOR_AXIS":"6920.925","ELEMENT_SET_NO":"999","RA_OF_ASC_NODE":"271.6020","TLE_LINE1":"1 44942U 20001AE  22178.60965382  .00011115  00000-0  73483-3 0  9992","DECAY_DATE":null,"REF_FRAME":"TEME","NORAD_CAT_ID":"44942","OBJECT_TYPE":"PAYLOAD","ARG_OF_PERICENTER":"130.2217","FILE":"3504144"}];
